[{"OBJECT_NAME":"STARLINK-36721","OBJECT_ID":"2026-036N","EPOCH":"2026-03-05T20:00:00.999360","MEAN_MOTION":15.82015618,"ECCENTRICITY":0.0001878,"INCLINATION":42.9986,"RA_OF_ASC_NODE":273.3168,"ARG_OF_PERICENTER":310.2218,"MEAN_ANOMALY":304.9327,"EPHEMERIS_TYPE":0,"CLASSIFICATION_TYPE":"U","NORAD_CAT_ID":67916,"ELEMENT_SET_NO":999,"REV_AT_EPOCH":302,"BSTAR":-1.1777e-5,"MEAN_MOTION_DOT":-3.013e-5,"MEAN_MOTION_DDOT":0},{"OBJECT_NAME":"STARLINK-36722","OBJECT_ID":"2026-036P","EPOCH":"2026-03-05T20:00:00.999360","MEAN_MOTION":15.81983216,"ECCENTRICITY":0.0001774,"INCLINATION":42.9968,"RA_OF_ASC_NODE":273.3054,"ARG_OF_PERICENTER":296.5554,"MEAN_ANOMALY":322.8803,"EPHEMERIS_TYPE":0,"CLASSIFICATION_TYPE":"U","NORAD_CAT_ID":67917,"ELEMENT_SET_NO":999,"REV_AT_EPOCH":302,"BSTAR":0.00043705,"MEAN_MOTION_DOT":0.00092339,"MEAN_MOTION_DDOT":0},{"OBJECT_NAME":"STARLINK-36341","OBJECT_ID":"2026-036Q","EPOCH":"2026-03-05T20:00:00.999360","MEAN_MOTION":15.82050103,"ECCENTRICITY":0.0001858,"INCLINATION":42.9942,"RA_OF_ASC_NODE":273.2834,"ARG_OF_PERICENTER":261.1326,"MEAN_ANOMALY":6.8456,"EPHEMERIS_TYPE":0,"CLASSIFICATION_TYPE":"U","NORAD_CAT_ID":67918,"ELEMENT_SET_NO":999,"REV_AT_EPOCH":302,"BSTAR":-0.00032191,"MEAN_MOTION_DOT":-0.00067898,"MEAN_MOTION_DDOT":0},{"OBJECT_NAME":"STARLINK-36663","OBJECT_ID":"2026-036R","EPOCH":"2026-03-05T20:00:00.999360","MEAN_MOTION":15.82018135,"ECCENTRICITY":0.000231,"INCLINATION":42.997,"RA_OF_ASC_NODE":273.2948,"ARG_OF_PERICENTER":298.4007,"MEAN_ANOMALY":325.3084,"EPHEMERIS_TYPE":0,"CLASSIFICATION_TYPE":"U","NORAD_CAT_ID":67919,"ELEMENT_SET_NO":999,"REV_AT_EPOCH":302,"BSTAR":0.00010123,"MEAN_MOTION_DOT":0.00020837,"MEAN_MOTION_DDOT":0},{"OBJECT_NAME":"STARLINK-36375","OBJECT_ID":"2026-036S","EPOCH":"2026-03-05T20:00:00.999360","MEAN_MOTION":15.82000553,"ECCENTRICITY":0.0002027,"INCLINATION":42.9957,"RA_OF_ASC_NODE":273.2731,"ARG_OF_PERICENTER":270.9405,"MEAN_ANOMALY":1.3165,"EPHEMERIS_TYPE":0,"CLASSIFICATION_TYPE":"U","NORAD_CAT_ID":67920,"ELEMENT_SET_NO":999,"REV_AT_EPOCH":302,"BSTAR":9.4021e-5,"MEAN_MOTION_DOT":0.00019295,"MEAN_MOTION_DDOT":0},{"OBJECT_NAME":"STARLINK-36405","OBJECT_ID":"2026-036T","EPOCH":"2026-03-05T20:00:00.999360","MEAN_MOTION":15.82006346,"ECCENTRICITY":0.0001737,"INCLINATION":42.9957,"RA_OF_ASC_NODE":273.2627,"ARG_OF_PERICENTER":265.8486,"MEAN_ANOMALY":10.6792,"EPHEMERIS_TYPE":0,"CLASSIFICATION_TYPE":"U","NORAD_CAT_ID":67921,"ELEMENT_SET_NO":999,"REV_AT_EPOCH":302,"BSTAR":2.0354e-6,"MEAN_MOTION_DOT":-1.05e-6,"MEAN_MOTION_DDOT":0},{"OBJECT_NAME":"STARLINK-36383","OBJECT_ID":"2026-036U","EPOCH":"2026-03-05T20:00:00.999360","MEAN_MOTION":15.82039434,"ECCENTRICITY":0.0002018,"INCLINATION":42.9948,"RA_OF_ASC_NODE":273.2517,"ARG_OF_PERICENTER":284.829,"MEAN_ANOMALY":355.9735,"EPHEMERIS_TYPE":0,"CLASSIFICATION_TYPE":"U","NORAD_CAT_ID":67922,"ELEMENT_SET_NO":999,"REV_AT_EPOCH":302,"BSTAR":-0.00027546,"MEAN_MOTION_DOT":-0.00058214,"MEAN_MOTION_DDOT":0},{"OBJECT_NAME":"STARLINK-36406","OBJECT_ID":"2026-036V","EPOCH":"2026-03-05T20:00:00.999360","MEAN_MOTION":15.82055013,"ECCENTRICITY":0.0001801,"INCLINATION":42.9947,"RA_OF_ASC_NODE":273.2411,"ARG_OF_PERICENTER":280.6631,"MEAN_ANOMALY":4.4048,"EPHEMERIS_TYPE":0,"CLASSIFICATION_TYPE":"U","NORAD_CAT_ID":67923,"ELEMENT_SET_NO":999,"REV_AT_EPOCH":302,"BSTAR":-0.00044488,"MEAN_MOTION_DOT":-0.0009338,"MEAN_MOTION_DDOT":0},{"OBJECT_NAME":"STARLINK-36714","OBJECT_ID":"2026-036W","EPOCH":"2026-03-05T20:00:00.999360","MEAN_MOTION":15.82045148,"ECCENTRICITY":0.0002221,"INCLINATION":42.9949,"RA_OF_ASC_NODE":273.2302,"ARG_OF_PERICENTER":274.0605,"MEAN_ANOMALY":15.2836,"EPHEMERIS_TYPE":0,"CLASSIFICATION_TYPE":"U","NORAD_CAT_ID":67924,"ELEMENT_SET_NO":999,"REV_AT_EPOCH":302,"BSTAR":-0.00031609,"MEAN_MOTION_DOT":-0.0006668,"MEAN_MOTION_DDOT":0},{"OBJECT_NAME":"STARLINK-36726","OBJECT_ID":"2026-036X","EPOCH":"2026-03-05T20:00:00.999360","MEAN_MOTION":15.8201526,"ECCENTRICITY":0.0001839,"INCLINATION":42.9958,"RA_OF_ASC_NODE":273.2198,"ARG_OF_PERICENTER":267.0317,"MEAN_ANOMALY":26.5834,"EPHEMERIS_TYPE":0,"CLASSIFICATION_TYPE":"U","NORAD_CAT_ID":67925,"ELEMENT_SET_NO":999,"REV_AT_EPOCH":302,"BSTAR":-0.00010195,"MEAN_MOTION_DOT":-0.00021946,"MEAN_MOTION_DDOT":0},{"OBJECT_NAME":"STARLINK-36758","OBJECT_ID":"2026-036Y","EPOCH":"2026-03-05T20:00:00.999360","MEAN_MOTION":15.82011027,"ECCENTRICITY":0.0001954,"INCLINATION":42.9959,"RA_OF_ASC_NODE":273.2087,"ARG_OF_PERICENTER":276.1088,"MEAN_ANOMALY":21.7781,"EPHEMERIS_TYPE":0,"CLASSIFICATION_TYPE":"U","NORAD_CAT_ID":67926,"ELEMENT_SET_NO":999,"REV_AT_EPOCH":302,"BSTAR":-0.00016474,"MEAN_MOTION_DOT":-0.00035075,"MEAN_MOTION_DDOT":0},{"OBJECT_NAME":"STARLINK-36728","OBJECT_ID":"2026-036Z","EPOCH":"2026-03-05T20:00:00.999360","MEAN_MOTION":15.81970742,"ECCENTRICITY":0.0001924,"INCLINATION":42.997,"RA_OF_ASC_NODE":273.1867,"ARG_OF_PERICENTER":287.7469,"MEAN_ANOMALY":18.698,"EPHEMERIS_TYPE":0,"CLASSIFICATION_TYPE":"U","NORAD_CAT_ID":67927,"ELEMENT_SET_NO":999,"REV_AT_EPOCH":302,"BSTAR":0.00051203,"MEAN_MOTION_DOT":0.00108414,"MEAN_MOTION_DDOT":0},{"OBJECT_NAME":"STARLINK-36771","OBJECT_ID":"2026-036AA","EPOCH":"2026-03-05T20:00:00.999360","MEAN_MOTION":15.820074,"ECCENTRICITY":0.0002027,"INCLINATION":42.9959,"RA_OF_ASC_NODE":273.1975,"ARG_OF_PERICENTER":266.7485,"MEAN_ANOMALY":35.4128,"EPHEMERIS_TYPE":0,"CLASSIFICATION_TYPE":"U","NORAD_CAT_ID":67928,"ELEMENT_SET_NO":999,"REV_AT_EPOCH":302,"BSTAR":5.7172e-5,"MEAN_MOTION_DOT":0.00011517,"MEAN_MOTION_DDOT":0},{"OBJECT_NAME":"STARLINK-36809","OBJECT_ID":"2026-036AB","EPOCH":"2026-03-05T20:00:00.999360","MEAN_MOTION":15.8203967,"ECCENTRICITY":0.0001939,"INCLINATION":42.9948,"RA_OF_ASC_NODE":273.1762,"ARG_OF_PERICENTER":269.5916,"MEAN_ANOMALY":41.1224,"EPHEMERIS_TYPE":0,"CLASSIFICATION_TYPE":"U","NORAD_CAT_ID":67929,"ELEMENT_SET_NO":999,"REV_AT_EPOCH":302,"BSTAR":-0.00027714,"MEAN_MOTION_DOT":-0.00058565,"MEAN_MOTION_DDOT":0},{"OBJECT_NAME":"STARLINK-36865","OBJECT_ID":"2026-036AC","EPOCH":"2026-03-05T20:00:00.999360","MEAN_MOTION":15.81989535,"ECCENTRICITY":0.0001834,"INCLINATION":42.9958,"RA_OF_ASC_NODE":273.1543,"ARG_OF_PERICENTER":276.6246,"MEAN_ANOMALY":42.6319,"EPHEMERIS_TYPE":0,"CLASSIFICATION_TYPE":"U","NORAD_CAT_ID":67930,"ELEMENT_SET_NO":999,"REV_AT_EPOCH":302,"BSTAR":3.8157e-5,"MEAN_MOTION_DOT":7.499e-5,"MEAN_MOTION_DDOT":0},{"OBJECT_NAME":"STARLINK-36781","OBJECT_ID":"2026-036AD","EPOCH":"2026-03-05T20:00:00.999360","MEAN_MOTION":15.82057132,"ECCENTRICITY":0.0001716,"INCLINATION":42.9946,"RA_OF_ASC_NODE":273.1649,"ARG_OF_PERICENTER":282.3325,"MEAN_ANOMALY":32.6505,"EPHEMERIS_TYPE":0,"CLASSIFICATION_TYPE":"U","NORAD_CAT_ID":67931,"ELEMENT_SET_NO":999,"REV_AT_EPOCH":302,"BSTAR":-0.00047638,"MEAN_MOTION_DOT":-0.00099889,"MEAN_MOTION_DDOT":0}]
