STARLINK-36721          
1 67916U 26036N   26064.83334490 -.00003013  00000+0 -11777-4 0  9993
2 67916  42.9986 273.3168 0001878 310.2218 304.9327 15.82015618  3020
STARLINK-36722          
1 67917U 26036P   26064.83334490  .00092339  00000+0  43705-3 0  9996
2 67917  42.9968 273.3054 0001774 296.5554 322.8803 15.81983216  3024
STARLINK-36341          
1 67918U 26036Q   26064.83334490 -.00067898  00000+0 -32191-3 0  9998
2 67918  42.9942 273.2834 0001858 261.1326   6.8456 15.82050103  3024
STARLINK-36663          
1 67919U 26036R   26064.83334490  .00020837  00000+0  10123-3 0  9990
2 67919  42.9970 273.2948 0002310 298.4007 325.3084 15.82018135  3020
STARLINK-36375          
1 67920U 26036S   26064.83334490  .00019295  00000+0  94021-4 0  9998
2 67920  42.9957 273.2731 0002027 270.9405   1.3165 15.82000553  3025
STARLINK-36405          
1 67921U 26036T   26064.83334490 -.00000105  00000+0  20354-5 0  9999
2 67921  42.9957 273.2627 0001737 265.8486  10.6792 15.82006346  3024
STARLINK-36383          
1 67922U 26036U   26064.83334490 -.00058214  00000+0 -27546-3 0  9993
2 67922  42.9948 273.2517 0002018 284.8290 355.9735 15.82039434  3026
STARLINK-36406          
1 67923U 26036V   26064.83334490 -.00093380  00000+0 -44488-3 0  9991
2 67923  42.9947 273.2411 0001801 280.6631   4.4048 15.82055013  3025
STARLINK-36714          
1 67924U 26036W   26064.83334490 -.00066680  00000+0 -31609-3 0  9996
2 67924  42.9949 273.2302 0002221 274.0605  15.2836 15.82045148  3025
STARLINK-36726          
1 67925U 26036X   26064.83334490 -.00021946  00000+0 -10195-3 0  9990
2 67925  42.9958 273.2198 0001839 267.0317  26.5834 15.82015260  3020
STARLINK-36758          
1 67926U 26036Y   26064.83334490 -.00035075  00000+0 -16474-3 0  9995
2 67926  42.9959 273.2087 0001954 276.1088  21.7781 15.82011027  3028
STARLINK-36728          
1 67927U 26036Z   26064.83334490  .00108414  00000+0  51203-3 0  9991
2 67927  42.9970 273.1867 0001924 287.7469  18.6980 15.81970742  3028
STARLINK-36771          
1 67928U 26036AA  26064.83334490  .00011517  00000+0  57172-4 0  9991
2 67928  42.9959 273.1975 0002027 266.7485  35.4128 15.82007400  3020
STARLINK-36809          
1 67929U 26036AB  26064.83334490 -.00058565  00000+0 -27714-3 0  9996
2 67929  42.9948 273.1762 0001939 269.5916  41.1224 15.82039670  3029
STARLINK-36865          
1 67930U 26036AC  26064.83334490  .00007499  00000+0  38157-4 0  9990
2 67930  42.9958 273.1543 0001834 276.6246  42.6319 15.81989535  3022
STARLINK-36781          
1 67931U 26036AD  26064.83334490 -.00099889  00000+0 -47638-3 0  9990
2 67931  42.9946 273.1649 0001716 282.3325  32.6505 15.82057132  3024
